norad_id,name,regime,epoch,line1,line2,inclination,eccentricity,mean_motion,raan,arg_pericenter,mean_anomaly
20083,RADUGA 1-1,EGO,93330.81215197,1 20083U 89048  A 93330.81215197 -.00000020 +00000-0 +00000-0 0 09638\,2 20083 002.4317 068.9659 0002278 223.4954 136.0111 01.00267837016232,2.4317,0.0002278,1.00267837,68.9659,223.4954,136.0111
20083,RADUGA 1-1,EGO,93331.80932756,1 20083U 89048  A 93331.80932756 -.00000019 +00000-0 +00000-0 0 09644\,2 20083 002.4309 068.8506 0001733 217.6807 141.8803 01.00266130016259,2.4309,0.0001733,1.0026613,68.8506,217.6807,141.8803
20083,RADUGA 1-1,EGO,93332.80631240,1 20083U 89048  A 93332.80631240 -.00000019 +00000-0 +00000-0 0 09649\,2 20083 002.4333 068.8504 0002013 224.6887 134.7500 01.00266488016264,2.4333,0.0002013,1.00266488,68.8504,224.6887,134.75
20083,RADUGA 1-1,EGO,93333.80358906,1 20083U 89048  A 93333.80358906 -.00000019 +00000-0 +00000-0 0 09656\,2 20083 002.4361 068.8556 0002057 225.0953 134.3246 01.00266821016263,2.4361,0.0002057,1.00266821,68.8556,225.0953,134.3246
20083,RADUGA 1-1,EGO,93334.80092409,1 20083U 89048  A 93334.80092409 -.00000019 +00000-0 +00000-0 0 09650\,2 20083 002.4364 068.8421 0002095 226.4918 132.9473 01.00266956016282,2.4364,0.0002095,1.00266956,68.8421,226.4918,132.9473
20083,RADUGA 1-1,EGO,93335.79825219,1 20083U 89048  A 93335.79825219 -.00000019 +00000-0 +00000-0 0 09663\,2 20083 002.4348 068.8206 0002223 214.0643 145.3862 01.00266284016291,2.4348,0.0002223,1.00266284,68.8206,214.0643,145.3862
20083,RADUGA 1-1,EGO,93335.79827346,1 20083U 89048  A 93335.79827346 -.00000018 +00000-0 +00000-0 0 09665\,2 20083 002.4351 068.8436 0002183 209.6298 149.8033 01.00266103016289,2.4351,0.0002183,1.00266103,68.8436,209.6298,149.8033
20083,RADUGA 1-1,EGO,93337.79309637,1 20083U 89048  A 93337.79309637 -.00000018 +00000-0 +00000-0 0 09676\,2 20083 002.4396 068.8000 0002189 208.6829 150.8546 01.00266276016305,2.4396,0.0002189,1.00266276,68.8,208.6829,150.8546
20083,RADUGA 1-1,EGO,93338.79048053,1 20083U 89048  A 93338.79048053 -.00000018 +00000-0 +00000-0 0 09499\,2 20083 002.4457 068.7616 0001777 223.8629 135.7540 01.00267177016323,2.4457,0.0001777,1.00267177,68.7616,223.8629,135.754
20083,RADUGA 1-1,EGO,93339.78780853,1 20083U 89048  A 93339.78780853 -.00000018 +00000-0 +00000-0 0 09681\,2 20083 002.4444 068.8110 0002364 214.3973 145.1523 01.00266551016331,2.4444,0.0002364,1.00266551,68.811,214.3973,145.1523
20083,RADUGA 1-1,EGO,93342.19764468,1 20083U 89048  A 93342.19764468 -.00000017 +00000-0 +00000-0 0 09683\,2 20083 002.4491 068.7954 0002423 216.4256 293.0068 01.00266718016355,2.4491,0.0002423,1.00266718,68.7954,216.4256,293.0068
20083,RADUGA 1-1,EGO,93343.08716435,1 20083U 89048  A 93343.08716435 -.00000017 +00000-0 +00000-0 0 09694\,2 20083 002.4510 068.7835 0002454 216.0081 254.5224 01.00266784016361,2.451,0.0002454,1.00266784,68.7835,216.0081,254.5224
20083,RADUGA 1-1,EGO,93343.70049233,1 20083U 89048  A 93343.70049233 -.00000017 +00000-0 +00000-0 0 09700\,2 20083 002.4525 068.7830 0002394 214.5729 117.3479 01.00266790016362,2.4525,0.0002394,1.0026679,68.783,214.5729,117.3479
20083,RADUGA 1-1,EGO,93345.33489583,1 20083U 89048  A 93345.33489583 -.00000017 +00000-0 +00000-0 0 09718\,2 20083 002.4560 068.7503 0002396 217.3628 344.5548 01.00266916016382,2.456,0.0002396,1.00266916,68.7503,217.3628,344.5548
20083,RADUGA 1-1,EGO,93345.77110950,1 20083U 89048  A 93345.77110950 -.00000017 +00000-0 +00000-0 0 09502\,2 20083 002.4566 068.6225 0001732 200.7349 158.7737 01.00266734016380,2.4566,0.0001732,1.00266734,68.6225,200.7349,158.7737
20083,RADUGA 1-1,EGO,93347.34152778,1 20083U 89048  A 93347.34152778 -.00000017 +00000-0 +00000-0 0 09703\,2 20083 002.4613 068.7144 0002413 222.3672 343.9118 01.00267050016406,2.4613,0.0002413,1.0026705,68.7144,222.3672,343.9118
20083,RADUGA 1-1,EGO,93348.34940394,1 20083U 89048  A 93348.34940394 -.00000016 +00000-0 +00000-0 0 09713\,2 20083 002.4642 068.6934 0002198 217.2697 352.8332 01.00266966016417,2.4642,0.0002198,1.00266966,68.6934,217.2697,352.8332
20083,RADUGA 1-1,EGO,93349.07595486,1 20083U 89048  A 93349.07595486 -.00000016 +00000-0 +00000-0 0 09701\,2 20083 002.4666 068.6827 0002072 213.4545 258.9175 01.00266964016425,2.4666,0.0002072,1.00266964,68.6827,213.4545,258.9175
20083,RADUGA 1-1,EGO,93350.83280053,1 20083U 89048  A 93350.83280053 -.00000016 +00000-0 +00000-0 0 09720\,2 20083 002.4705 068.6714 0001985 216.3452 170.1997 01.00267025016443,2.4705,0.0001985,1.00267025,68.6714,216.3452,170.1997
20083,RADUGA 1-1,EGO,93351.88801203,1 20083U 89048  A 93351.88801203 -.00000016 +00000-0 +00000-0 0 09722\,2 20083 002.4740 068.6384 0001987 216.4576 191.0182 01.00267137016458,2.474,0.0001987,1.00267137,68.6384,216.4576,191.0182
20083,RADUGA 1-1,EGO,93352.75253589,1 20083U 89048  A 93352.75253589 -.00000016 +00000-0 +00000-0 0 09761\,2 20083 002.4790 068.5026 0001546 165.7410 193.9537 01.00267389016464,2.479,0.0001546,1.00267389,68.5026,165.741,193.9537
20083,RADUGA 1-1,EGO,93353.76326330,1 20083U 89048  A 93353.76326330 -.00000015 +00000-0 +00000-0 0 09789\,2 20083 002.4783 068.6058 0001965 216.1061 148.3089 01.00267327016479,2.4783,0.0001965,1.00267327,68.6058,216.1061,148.3089
20083,RADUGA 1-1,EGO,93355.30038215,1 20083U 89048  A 93355.30038215 -.00000015 +00000-0 +00000-0 0 09750\,2 20083 002.4817 068.5965 0002014 216.1731 343.1059 01.00267520016481,2.4817,0.0002014,1.0026752,68.5965,216.1731,343.1059
20083,RADUGA 1-1,EGO,93355.74443794,1 20083U 89048  A 93355.74443794 -.00000015 +00000-0 +00000-0 0 09761\,2 20083 002.4833 068.4631 0001452 173.4980 186.2218 01.00267676016489,2.4833,0.0001452,1.00267676,68.4631,173.498,186.2218
20083,RADUGA 1-1,EGO,93357.61320479,1 20083U 89048  A 93357.61320479 -.00000015 +00000-0 +00000-0 0 09796\,2 20083 002.4864 068.5857 0002008 218.1951 095.9538 01.00267711016501,2.4864,0.0002008,1.00267711,68.5857,218.1951,95.9538
20083,RADUGA 1-1,EGO,93357.73888327,1 20083U 89048  A 93357.73888327 -.00000015 +00000-0 +00000-0 0 09790\,2 20083 002.4874 068.4693 0001384 178.4369 181.2090 01.00267799016504,2.4874,0.0001384,1.00267799,68.4693,178.4369,181.209
20083,RADUGA 1-1,EGO,93359.90653834,1 20083U 89048  A 93359.90653834 -.00000015 +00000-0 +00000-0 0 09974\,2 20083 002.4932 068.5370 0001911 222.0240 200.0053 01.00268035016538,2.4932,0.0001911,1.00268035,68.537,222.024,200.0053
20083,RADUGA 1-1,EGO,93360.29335537,1 20083U 89048  A 93360.29335537 -.00000015 +00000-0 +00000-0 0 09986\,2 20083 002.4940 068.5316 0001907 222.1039 339.5609 01.00268076016539,2.494,0.0001907,1.00268076,68.5316,222.1039,339.5609
20083,RADUGA 1-1,EGO,93360.73055487,1 20083U 89048  A 93360.73055487 -.00000015 +00000-0 +00000-0 0 09966\,2 20083 002.4950 068.4432 0001267 220.0338 139.5368 01.00268000016533,2.495,0.0001267,1.00268,68.4432,220.0338,139.5368
20083,RADUGA 1-1,EGO,93361.72786996,1 20083U 89048  A 93361.72786996 -.00000015 +00000-0 +00000-0 0 09984\,2 20083 002.4957 068.4288 0001308 225.1109 134.4766 01.00268112016548,2.4957,0.0001308,1.00268112,68.4288,225.1109,134.4766
20083,RADUGA 1-1,EGO,93364.08256366,1 20083U 89048  A 93364.08256366 -.00000015 +00000-0 +00000-0 0 09989\,2 20083 002.5024 068.5036 0001864 220.5735 268.9219 01.00268511016579,2.5024,0.0001864,1.00268511,68.5036,220.5735,268.9219
20083,RADUGA 1-1,EGO,93364.73354745,1 20083U 89048  A 93364.73354745 -.00000015 +00000-0 +00000-0 0 00016\,2 20083 002.5037 068.5065 0001956 218.4140 146.0690 01.00268611016584,2.5037,0.0001956,1.00268611,68.5065,218.414,146.069
20083,RADUGA 1-1,EGO,94002.84854972,1 20083U 89048  A 94002.84854972 -.00000014 +00000-0 +00000-0 0 00014\,2 20083 002.5121 068.4564 0002001 221.2446 187.7275 01.00268986016614,2.5121,0.0002001,1.00268986,68.4564,221.2446,187.7275
20083,RADUGA 1-1,EGO,94003.64905735,1 20083U 89048  A 94003.64905735  .00000318 +00000-0 +00000-0 0 00035\,2 20083 002.5142 068.4762 0002127 222.7130 115.2047 01.00269097016619,2.5142,0.0002127,1.00269097,68.4762,222.713,115.2047
20083,RADUGA 1-1,EGO,94004.76307311,1 20083U 89048  A 94004.76307311 -.00000029 +00000-0 +00000-0 0 00035\,2 20083 002.5161 068.4823 0002153 228.8509 151.1923 01.00269215016630,2.5161,0.0002153,1.00269215,68.4823,228.8509,151.1923
20083,RADUGA 1-1,EGO,94005.74653508,1 20083U 89048  A 94005.74653508  .00000017 +00000-0 +00000-0 0 00043\,2 20083 002.5180 068.4762 0002156 229.4696 145.5865 01.00269328016648,2.518,0.0002156,1.00269328,68.4762,229.4696,145.5865
20083,RADUGA 1-1,EGO,94007.77655475,1 20083U 89048  A 94007.77655475 -.00000092 +00000-0 +00000-0 0 00137\,2 20083 002.5221 068.4648 0002192 233.6164 154.2369 01.00269521016667,2.5221,0.0002192,1.00269521,68.4648,233.6164,154.2369
20083,RADUGA 1-1,EGO,94008.75937545,1 20083U 89048  A 94008.75937545 -.00000051 +00000-0 +00000-0 0 00165\,2 20083 002.5240 068.4633 0002169 233.7142 148.9154 01.00269619016674,2.524,0.0002169,1.00269619,68.4633,233.7142,148.9154
20083,RADUGA 1-1,EGO,94009.81557198,1 20083U 89048  A 94009.81557198 -.00000014 +00000-0 +00000-0 0 00142\,2 20083 002.5263 068.4558 0002145 233.9043 169.9946 01.00269723016680,2.5263,0.0002145,1.00269723,68.4558,233.9043,169.9946
20083,RADUGA 1-1,EGO,94010.76004030,1 20083U 89048  A 94010.76004030 -.00000014 +00000-0 +00000-0 0 00173\,2 20083 002.5282 068.4528 0002117 234.3926 150.4403 01.00269816016699,2.5282,0.0002117,1.00269816,68.4528,234.3926,150.4403
20083,RADUGA 1-1,EGO,94011.32502124,1 20083U 89048  A 94011.32502124 -.00000014 +00000-0 +00000-0 0 00184\,2 20083 002.5295 068.4445 0002062 234.5330 354.2542 01.00269879016698,2.5295,0.0002062,1.00269879,68.4445,234.533,354.2542
20083,RADUGA 1-1,EGO,94012.30174132,1 20083U 89048  A 94012.30174132 -.00000014 +00000-0 +00000-0 0 00198\,2 20083 002.5316 068.4307 0002007 235.0286 346.3476 01.00269988016705,2.5316,0.0002007,1.00269988,68.4307,235.0286,346.3476
